GLOBALSTAR M069         
1 31573U 07020C   26179.81726166 -.00000066  00000+0  24986-3 0  9994
2 31573  52.0004 219.2090 0002067 173.7655 358.6688 12.23471629880225
GLOBALSTAR M072         
1 31574U 07020D   26179.88295733 -.00000078  00000+0  79441-4 0  9993
2 31574  51.9938  69.1082 0001533   1.0008  80.6918 11.91658427876371
GLOBALSTAR M066         
1 32265U 07048C   26179.95602956 -.00000097  00000+0 -17793-4 0  9992
2 32265  51.9600  24.1274 0005653  68.8011  78.4927 12.30387133861670
GLOBALSTAR M079         
1 37188U 10054A   26179.85892803 -.00000095  00000+0  49522-4 0  9995
2 37188  52.0045  73.1397 0000952  49.1251  27.6314 12.62266291724028
GLOBALSTAR M074         
1 37189U 10054B   26179.71884433 -.00000061  00000+0  23685-3 0  9995
2 37189  52.0023  72.8292 0000758  69.8334 330.2849 12.62261912724616
GLOBALSTAR M076         
1 37190U 10054C   26179.97682073 -.00000101  00000+0  15004-4 0  9993
2 37190  52.0032  72.2480 0000968  64.5382 308.3304 12.62261901724361
GLOBALSTAR M077         
1 37191U 10054D   26179.93003264 -.00000087  00000+0 -16897-3 0  9993
2 37191  51.9931 149.4896 0002541 194.0728 198.1863 11.67547998722515
GLOBALSTAR M075         
1 37192U 10054E   26179.83284432 -.00000112  00000+0 -48426-4 0  9994
2 37192  51.9940 114.7339 0000442  38.4342 340.0268 12.62267439723416
GLOBALSTAR M073         
1 37193U 10054F   26179.83180038 -.00000086  00000+0  97047-4 0  9994
2 37193  52.0076  28.8469 0001081  70.2566 301.8791 12.62266700725407
GLOBALSTAR M083         
1 37739U 11033A   26179.87817639 -.00000083  00000+0  11732-3 0  9999
2 37739  51.9880 336.9181 0000957  85.5220  78.8370 12.62263686694426
GLOBALSTAR M088         
1 37740U 11033B   26179.61167220 -.00000069  00000+0  19455-3 0  9991
2 37740  52.0200 244.1869 0000442 144.1349   7.0871 12.62269047689939
GLOBALSTAR M091         
1 37741U 11033C   26179.78751752 -.00000085  00000+0  10722-3 0  9995
2 37741  51.9968 206.5991 0000016 228.6162 302.8951 12.62264128690746
GLOBALSTAR M085         
1 37742U 11033D   26179.89901786 -.00000107  00000+0 -18009-4 0  9995
2 37742  52.0102 157.5605 0000387   2.0228  16.4708 12.62264253691270
GLOBALSTAR M081         
1 37743U 11033E   26180.00970848 -.00000108  00000+0 -24652-4 0  9998
2 37743  51.9932 159.6464 0000281  35.9177   5.5411 12.62265307691436
GLOBALSTAR M089         
1 37744U 11033F   26179.97782090 -.00000118  00000+0 -79876-4 0  9992
2 37744  51.9922 113.9000 0000520  79.1060 358.3495 12.62267387692276
GLOBALSTAR M084         
1 38040U 11080A   26179.73935846 -.00000104  00000+0 -10868-5 0  9999
2 38040  52.0027 342.1133 0001093 104.6258 268.6113 12.62267610670226
GLOBALSTAR M080         
1 38041U 11080B   26179.71069094 -.00000100  00000+0  19310-4 0  9996
2 38041  52.0083 343.9228 0000428  77.3973 295.6197 12.62269681670349
GLOBALSTAR M082         
1 38042U 11080C   26179.75934425 -.00000096  00000+0  42072-4 0  9995
2 38042  52.0086 299.2775 0000456 106.9929  57.0103 12.62263728671056
GLOBALSTAR M092         
1 38043U 11080D   26179.96686442 -.00000082  00000+0  12049-3 0  9997
2 38043  52.0098  29.0429 0000838  80.7266  65.8957 12.62267222669539
GLOBALSTAR M090         
1 38044U 11080E   26179.78636253 -.00000098  00000+0  33693-4 0  9999
2 38044  52.0134 293.1548 0000598 100.0618  65.9123 12.62252821671175
GLOBALSTAR M086         
1 38045U 11080F   26179.80890015 -.00000071  00000+0  18289-3 0  9995
2 38045  51.9908 292.9969 0001690  86.8340  83.4940 12.62287332671126
GLOBALSTAR M097         
1 39072U 13005A   26179.32790133 -.00000074  00000+0  16384-3 0  9999
2 39072  52.0016 209.4238 0000128  85.1952 274.8929 12.62271251618315
GLOBALSTAR M093         
1 39073U 13005B   26179.77616619 -.00000082  00000+0  12384-3 0  9990
2 39073  52.0074 201.4093 0000259  36.1350 323.9534 12.62266161618327
GLOBALSTAR M094         
1 39074U 13005C   26179.85521598 -.00000126  00000+0 -12474-3 0  9991
2 39074  51.9949 115.2727 0000693  31.5119 328.5789 12.62268461619944
GLOBALSTAR M096         
1 39075U 13005D   26179.94790971 -.00000113  00000+0 -51411-4 0  9996
2 39075  52.0047 163.8015 0000326   6.2608 353.8263 12.62265683618872
GLOBALSTAR M078         
1 39076U 13005E   26179.92098030  .00000021  00000+0  69536-3 0  9994
2 39076  51.9860 247.8788 0000520 281.5213  78.5595 12.62260145617494
GLOBALSTAR M095         
1 39077U 13005F   26179.47259090 -.00000071  00000+0  18334-3 0  9996
2 39077  52.0069 246.8643 0000044  52.8039 307.2832 12.62263675617298
GLOBALSTAR M087         
1 52888U 22064A   26179.96088041 -.00000091  00000+0  70328-4 0  9990
2 52888  52.0010  26.6084 0000906  61.9488 298.1470 12.62269270192626
